CCSDS_OMM_VERS = 2.0
CREATION_DATE  = 
ORIGINATOR     = 

OBJECT_NAME    = H-2A R/B
OBJECT_ID      = 2006-002B
CENTER_NAME    = EARTH
REF_FRAME      = TEME
TIME_SYSTEM    = UTC
MEAN_ELEMENT_THEORY = SGP/SGP4

EPOCH          = 2026-03-22T03:29:25.911456
MEAN_MOTION    = 15.16682188
ECCENTRICITY   = .0052219
INCLINATION    = 98.2443
RA_OF_ASC_NODE = 229.2443
ARG_OF_PERICENTER = 198.2620
MEAN_ANOMALY   = 161.6738

EPHEMERIS_TYPE = 0
CLASSIFICATION_TYPE = U
NORAD_CAT_ID   = 28932
ELEMENT_SET_NO = 999
REV_AT_EPOCH   = 9632
BSTAR          = .61818406E-3
MEAN_MOTION_DOT = .12466E-3
MEAN_MOTION_DDOT = 0

CCSDS_OMM_VERS = 2.0
CREATION_DATE  = 
ORIGINATOR     = 

OBJECT_NAME    = RESURS-DK 1
OBJECT_ID      = 2006-021A
CENTER_NAME    = EARTH
REF_FRAME      = TEME
TIME_SYSTEM    = UTC
MEAN_ELEMENT_THEORY = SGP/SGP4

EPOCH          = 2026-03-21T18:25:59.240928
MEAN_MOTION    = 15.12824263
ECCENTRICITY   = .00007197
INCLINATION    = 69.9338
RA_OF_ASC_NODE = 205.7779
ARG_OF_PERICENTER = 117.7974
MEAN_ANOMALY   = 242.3265

EPHEMERIS_TYPE = 0
CLASSIFICATION_TYPE = U
NORAD_CAT_ID   = 29228
ELEMENT_SET_NO = 999
REV_AT_EPOCH   = 8935
BSTAR          = .18690412E-3
MEAN_MOTION_DOT = .3184E-4
MEAN_MOTION_DDOT = 0

CCSDS_OMM_VERS = 2.0
CREATION_DATE  = 
ORIGINATOR     = 

OBJECT_NAME    = CZ-4B R/B
OBJECT_ID      = 2006-046C
CENTER_NAME    = EARTH
REF_FRAME      = TEME
TIME_SYSTEM    = UTC
MEAN_ELEMENT_THEORY = SGP/SGP4

EPOCH          = 2026-03-22T01:49:45.479712
MEAN_MOTION    = 15.17022615
ECCENTRICITY   = .00321574
INCLINATION    = 97.5564
RA_OF_ASC_NODE = 125.9512
ARG_OF_PERICENTER = 222.4797
MEAN_ANOMALY   = 137.3948

EPHEMERIS_TYPE = 0
CLASSIFICATION_TYPE = U
NORAD_CAT_ID   = 29507
ELEMENT_SET_NO = 999
REV_AT_EPOCH   = 6192
BSTAR          = .30962945E-3
MEAN_MOTION_DOT = .6133E-4
MEAN_MOTION_DDOT = 0

CCSDS_OMM_VERS = 2.0
CREATION_DATE  = 
ORIGINATOR     = 

OBJECT_NAME    = CZ-2C R/B
OBJECT_ID      = 2007-010B
CENTER_NAME    = EARTH
REF_FRAME      = TEME
TIME_SYSTEM    = UTC
MEAN_ELEMENT_THEORY = SGP/SGP4

EPOCH          = 2026-03-22T06:23:05.193312
MEAN_MOTION    = 14.20250587
ECCENTRICITY   = .00578761
INCLINATION    = 98.3990
RA_OF_ASC_NODE = 193.9152
ARG_OF_PERICENTER = 257.3269
MEAN_ANOMALY   = 102.1434

EPHEMERIS_TYPE = 0
CLASSIFICATION_TYPE = U
NORAD_CAT_ID   = 31114
ELEMENT_SET_NO = 999
REV_AT_EPOCH   = 98150
BSTAR          = .8406472E-4
MEAN_MOTION_DOT = .141E-5
MEAN_MOTION_DDOT = 0

CCSDS_OMM_VERS = 2.0
CREATION_DATE  = 
ORIGINATOR     = 

OBJECT_NAME    = COSMO-SKYMED 1
OBJECT_ID      = 2007-023A
CENTER_NAME    = EARTH
REF_FRAME      = TEME
TIME_SYSTEM    = UTC
MEAN_ELEMENT_THEORY = SGP/SGP4

EPOCH          = 2026-03-22T05:37:11.505216
MEAN_MOTION    = 14.96627894
ECCENTRICITY   = .0001236
INCLINATION    = 97.8880
RA_OF_ASC_NODE = 272.3685
ARG_OF_PERICENTER = 87.3249
MEAN_ANOMALY   = 272.8114

EPHEMERIS_TYPE = 0
CLASSIFICATION_TYPE = U
NORAD_CAT_ID   = 31598
ELEMENT_SET_NO = 999
REV_AT_EPOCH   = 1678
BSTAR          = .31366768E-3
MEAN_MOTION_DOT = .3516E-4
MEAN_MOTION_DDOT = 0

CCSDS_OMM_VERS = 2.0
CREATION_DATE  = 
ORIGINATOR     = 

OBJECT_NAME    = COSMOS 2428
OBJECT_ID      = 2007-029A
CENTER_NAME    = EARTH
REF_FRAME      = TEME
TIME_SYSTEM    = UTC
MEAN_ELEMENT_THEORY = SGP/SGP4

EPOCH          = 2026-03-22T04:58:06.998016
MEAN_MOTION    = 14.12947767
ECCENTRICITY   = .00095799
INCLINATION    = 70.9441
RA_OF_ASC_NODE = 177.0721
ARG_OF_PERICENTER = 264.2709
MEAN_ANOMALY   = 95.7320

EPHEMERIS_TYPE = 0
CLASSIFICATION_TYPE = U
NORAD_CAT_ID   = 31792
ELEMENT_SET_NO = 999
REV_AT_EPOCH   = 96586
BSTAR          = .24894749E-4
MEAN_MOTION_DOT = -.2E-7
MEAN_MOTION_DDOT = 0

CCSDS_OMM_VERS = 2.0
CREATION_DATE  = 
ORIGINATOR     = 

OBJECT_NAME    = SL-16 R/B
OBJECT_ID      = 2007-029B
CENTER_NAME    = EARTH
REF_FRAME      = TEME
TIME_SYSTEM    = UTC
MEAN_ELEMENT_THEORY = SGP/SGP4

EPOCH          = 2026-03-22T06:58:12.251712
MEAN_MOTION    = 14.14840797
ECCENTRICITY   = .000243
INCLINATION    = 70.9756
RA_OF_ASC_NODE = 145.8986
ARG_OF_PERICENTER = 276.9027
MEAN_ANOMALY   = 147.4384

EPHEMERIS_TYPE = 0
CLASSIFICATION_TYPE = U
NORAD_CAT_ID   = 31793
ELEMENT_SET_NO = 999
REV_AT_EPOCH   = 96715
BSTAR          = .17992494E-3
MEAN_MOTION_DOT = .299E-5
MEAN_MOTION_DDOT = 0

CCSDS_OMM_VERS = 2.0
CREATION_DATE  = 
ORIGINATOR     = 

OBJECT_NAME    = KORONAS-FOTON
OBJECT_ID      = 2009-003A
CENTER_NAME    = EARTH
REF_FRAME      = TEME
TIME_SYSTEM    = UTC
MEAN_ELEMENT_THEORY = SGP/SGP4

EPOCH          = 2026-03-22T06:38:28.459392
MEAN_MOTION    = 15.43631157
ECCENTRICITY   = .00118187
INCLINATION    = 82.4273
RA_OF_ASC_NODE = 262.7861
ARG_OF_PERICENTER = 108.8270
MEAN_ANOMALY   = 251.4261

EPHEMERIS_TYPE = 0
CLASSIFICATION_TYPE = U
NORAD_CAT_ID   = 33504
ELEMENT_SET_NO = 999
REV_AT_EPOCH   = 94768
BSTAR          = .33913918E-3
MEAN_MOTION_DOT = .15346E-3
MEAN_MOTION_DDOT = 0

CCSDS_OMM_VERS = 2.0
CREATION_DATE  = 
ORIGINATOR     = 

OBJECT_NAME    = CZ-2C R/B
OBJECT_ID      = 2011-030B
CENTER_NAME    = EARTH
REF_FRAME      = TEME
TIME_SYSTEM    = UTC
MEAN_ELEMENT_THEORY = SGP/SGP4

EPOCH          = 2026-03-22T04:00:27.489312
MEAN_MOTION    = 14.81265842
ECCENTRICITY   = .00513966
INCLINATION    = 97.8567
RA_OF_ASC_NODE = 38.1823
ARG_OF_PERICENTER = 311.0065
MEAN_ANOMALY   = 58.9699

EPHEMERIS_TYPE = 0
CLASSIFICATION_TYPE = U
NORAD_CAT_ID   = 37731
ELEMENT_SET_NO = 999
REV_AT_EPOCH   = 79194
BSTAR          = .19215839E-3
MEAN_MOTION_DOT = .1477E-4
MEAN_MOTION_DDOT = 0

CCSDS_OMM_VERS = 2.0
CREATION_DATE  = 
ORIGINATOR     = 

OBJECT_NAME    = H-2A R/B
OBJECT_ID      = 2012-025E
CENTER_NAME    = EARTH
REF_FRAME      = TEME
TIME_SYSTEM    = UTC
MEAN_ELEMENT_THEORY = SGP/SGP4

EPOCH          = 2026-03-22T04:13:10.892064
MEAN_MOTION    = 14.95249809
ECCENTRICITY   = .00429883
INCLINATION    = 98.4751
RA_OF_ASC_NODE = 49.2238
ARG_OF_PERICENTER = 271.9953
MEAN_ANOMALY   = 87.6342

EPHEMERIS_TYPE = 0
CLASSIFICATION_TYPE = U
NORAD_CAT_ID   = 38341
ELEMENT_SET_NO = 999
REV_AT_EPOCH   = 75008
BSTAR          = .31870906E-3
MEAN_MOTION_DOT = .3501E-4
MEAN_MOTION_DDOT = 0

CCSDS_OMM_VERS = 2.0
CREATION_DATE  = 
ORIGINATOR     = 

OBJECT_NAME    = SHIJIAN-16 (SJ-16)
OBJECT_ID      = 2013-057A
CENTER_NAME    = EARTH
REF_FRAME      = TEME
TIME_SYSTEM    = UTC
MEAN_ELEMENT_THEORY = SGP/SGP4

EPOCH          = 2026-03-22T07:10:46.822656
MEAN_MOTION    = 14.92395264
ECCENTRICITY   = .00152908
INCLINATION    = 74.9733
RA_OF_ASC_NODE = 161.2192
ARG_OF_PERICENTER = 79.8128
MEAN_ANOMALY   = 280.4784

EPHEMERIS_TYPE = 0
CLASSIFICATION_TYPE = U
NORAD_CAT_ID   = 39358
ELEMENT_SET_NO = 999
REV_AT_EPOCH   = 67338
BSTAR          = .18721029E-3
MEAN_MOTION_DOT = .1892E-4
MEAN_MOTION_DDOT = 0

CCSDS_OMM_VERS = 2.0
CREATION_DATE  = 
ORIGINATOR     = 

OBJECT_NAME    = SL-4 R/B
OBJECT_ID      = 2014-021B
CENTER_NAME    = EARTH
REF_FRAME      = TEME
TIME_SYSTEM    = UTC
MEAN_ELEMENT_THEORY = SGP/SGP4

EPOCH          = 2026-03-21T21:33:45.991872
MEAN_MOTION    = 15.39567637
ECCENTRICITY   = .00965014
INCLINATION    = 51.6053
RA_OF_ASC_NODE = 277.6994
ARG_OF_PERICENTER = 147.4633
MEAN_ANOMALY   = 213.2348

EPHEMERIS_TYPE = 0
CLASSIFICATION_TYPE = U
NORAD_CAT_ID   = 39679
ELEMENT_SET_NO = 999
REV_AT_EPOCH   = 65815
BSTAR          = .45368617E-3
MEAN_MOTION_DOT = .20971E-3
MEAN_MOTION_DDOT = 0

